KUWAITSAT-1             
1 55103U 23001CY  26068.75242125  .00023651  00000+0  49716-3 0  9996
2 55103  97.3347 138.2650 0010253  82.1100 278.1312 15.45271031177218
SNIPE 2                 
1 56745U 23072C   26068.47296726  .00030525  00000+0  72334-3 0  9992
2 56745  97.5357 273.9779 0004932   6.2338 353.8968 15.41694724154857
